start=new Date('2023-05-26T00:00:00.000Z').valueOf();
sats=[{"GP_ID":"232518488","INCLINATION":"42.9999","CLASSIFICATION_TYPE":"U","SITE":"AFETR","REV_AT_EPOCH":"880","ARG_OF_PERICENTER":"270.1107","MEAN_MOTION_DOT":"0.00001031","MEAN_ELEMENT_THEORY":"SGP4","MEAN_MOTION_DDOT":"0.0000000000000","PERIAPSIS":"552.218","APOAPSIS":"553.898","ELEMENT_SET_NO":"999","PERIOD":"95.713","OBJECT_NAME":"STARLINK-6096","COUNTRY_CODE":"US","RA_OF_ASC_NODE":"295.0343","MEAN_ANOMALY":"89.9597","TLE_LINE2":"2 56103  42.9999 295.0343 0001212 270.1107  89.9597 15.04495195  8805","LAUNCH_DATE":"2023-03-29","EPOCH":"2023-05-25T20:49:21.217152","EPHEMERIS_TYPE":"0","REF_FRAME":"TEME","BSTAR":"0.00008702600000","TLE_LINE1":"1 56103U 23046L   23145.86760668  .00001031  00000-0  87026-4 0  9994","TIME_SYSTEM":"UTC","MEAN_MOTION":"15.04495195","ECCENTRICITY":"0.00012120","RCS_SIZE":"LARGE","OBJECT_TYPE":"PAYLOAD","NORAD_CAT_ID":"56103","DECAY_DATE":null,"CENTER_NAME":"EARTH","FILE":"3917122","SEMIMAJOR_AXIS":"6931.193","OBJECT_ID":"2023-046L"},{"LAUNCH_DATE":"2023-03-29","EPOCH":"2023-05-25T20:53:43.403136","REF_FRAME":"TEME","EPHEMERIS_TYPE":"0","ECCENTRICITY":"0.00015940","MEAN_MOTION":"15.04497446","TLE_LINE1":"1 56104U 23046M   23145.87064124  .00002685  00000-0  20314-3 0  9992","BSTAR":"0.00020314000000","TIME_SYSTEM":"UTC","RCS_SIZE":"LARGE","OBJECT_TYPE":"PAYLOAD","FILE":"3917122","NORAD_CAT_ID":"56104","DECAY_DATE":null,"CENTER_NAME":"EARTH","SEMIMAJOR_AXIS":"6931.186","OBJECT_ID":"2023-046M","GP_ID":"232518738","INCLINATION":"43.0001","CLASSIFICATION_TYPE":"U","ARG_OF_PERICENTER":"272.3308","SITE":"AFETR","REV_AT_EPOCH":"880","MEAN_MOTION_DDOT":"0.0000000000000","PERIAPSIS":"551.946","MEAN_MOTION_DOT":"0.00002685","MEAN_ELEMENT_THEORY":"SGP4","APOAPSIS":"554.156","PERIOD":"95.713","ELEMENT_SET_NO":"999","TLE_LINE2":"2 56104  43.0001 295.0576 0001594 272.3308  87.7352 15.04497446  8806","MEAN_ANOMALY":"87.7352","COUNTRY_CODE":"US","OBJECT_NAME":"STARLINK-6062","RA_OF_ASC_NODE":"295.0576"},{"MEAN_ELEMENT_THEORY":"SGP4","MEAN_MOTION_DOT":"0.00001265","PERIAPSIS":"552.171","MEAN_MOTION_DDOT":"0.0000000000000","APOAPSIS":"553.936","ELEMENT_SET_NO":"999","PERIOD":"95.713","RA_OF_ASC_NODE":"294.9274","OBJECT_NAME":"STARLINK-6066","COUNTRY_CODE":"US","TLE_LINE2":"2 56105  43.0000 294.9274 0001273 268.9297  91.1400 15.04496627  8804","MEAN_ANOMALY":"91.1400","GP_ID":"232519490","CLASSIFICATION_TYPE":"U","INCLINATION":"43.0000","SITE":"AFETR","REV_AT_EPOCH":"880","ARG_OF_PERICENTER":"268.9297","RCS_SIZE":"LARGE","OBJECT_TYPE":"PAYLOAD","DECAY_DATE":null,"CENTER_NAME":"EARTH","NORAD_CAT_ID":"56105","FILE":"3917122","SEMIMAJOR_AXIS":"6931.188","OBJECT_ID":"2023-046N","LAUNCH_DATE":"2023-03-29","EPOCH":"2023-05-25T20:28:36.010848","EPHEMERIS_TYPE":"0","REF_FRAME":"TEME","TIME_SYSTEM":"UTC","TLE_LINE1":"1 56105U 23046N   23145.85319457  .00001265  00000-0  10342-3 0  9996","BSTAR":"0.00010342000000","ECCENTRICITY":"0.00012730","MEAN_MOTION":"15.04496627"},{"APOAPSIS":"553.863","MEAN_MOTION_DDOT":"0.0000000000000","PERIAPSIS":"552.237","MEAN_MOTION_DOT":"0.00001738","MEAN_ELEMENT_THEORY":"SGP4","TLE_LINE2":"2 56106  43.0006 294.9797 0001173 273.9062  86.1647 15.04497706  8802","MEAN_ANOMALY":"86.1647","OBJECT_NAME":"STARLINK-6078","COUNTRY_CODE":"US","RA_OF_ASC_NODE":"294.9797","PERIOD":"95.713","ELEMENT_SET_NO":"999","INCLINATION":"43.0006","CLASSIFICATION_TYPE":"U","GP_ID":"232519240","ARG_OF_PERICENTER":"273.9062","SITE":"AFETR","REV_AT_EPOCH":"880","OBJECT_TYPE":"PAYLOAD","RCS_SIZE":"LARGE","SEMIMAJOR_AXIS":"6931.185","OBJECT_ID":"2023-046P","FILE":"3917122","NORAD_CAT_ID":"56106","DECAY_DATE":null,"CENTER_NAME":"EARTH","EPOCH":"2023-05-25T20:38:10.065408","LAUNCH_DATE":"2023-03-29","ECCENTRICITY":"0.00011730","MEAN_MOTION":"15.04497706","TLE_LINE1":"1 56106U 23046P   23145.85983872  .00001738  00000-0  13662-3 0  9998","BSTAR":"0.00013662000000","TIME_SYSTEM":"UTC","REF_FRAME":"TEME","EPHEMERIS_TYPE":"0"},{"INCLINATION":"43.0002","CLASSIFICATION_TYPE":"U","GP_ID":"232517988","ARG_OF_PERICENTER":"266.1912","SITE":"AFETR","REV_AT_EPOCH":"880","APOAPSIS":"554.014","MEAN_MOTION_DDOT":"0.0000000000000","PERIAPSIS":"552.105","MEAN_MOTION_DOT":"0.00002083","MEAN_ELEMENT_THEORY":"SGP4","TLE_LINE2":"2 56107  43.0002 294.8795 0001377 266.1912  93.8774 15.04494659  8800","MEAN_ANOMALY":"93.8774","COUNTRY_CODE":"US","OBJECT_NAME":"STARLINK-6030","RA_OF_ASC_NODE":"294.8795","PERIOD":"95.713","ELEMENT_SET_NO":"999","EPOCH":"2023-05-25T20:19:02.521344","LAUNCH_DATE":"2023-03-29","MEAN_MOTION":"15.04494659","ECCENTRICITY":"0.00013770","TLE_LINE1":"1 56107U 23046Q   23145.84655696  .00002083  00000-0  16089-3 0  9998","BSTAR":"0.00016089000000","TIME_SYSTEM":"UTC","EPHEMERIS_TYPE":"0","REF_FRAME":"TEME","OBJECT_TYPE":"PAYLOAD","RCS_SIZE":"LARGE","SEMIMAJOR_AXIS":"6931.194","OBJECT_ID":"2023-046Q","FILE":"3917122","NORAD_CAT_ID":"56107","CENTER_NAME":"EARTH","DECAY_DATE":null},{"CLASSIFICATION_TYPE":"U","INCLINATION":"43.0002","GP_ID":"232518238","REV_AT_EPOCH":"880","SITE":"AFETR","ARG_OF_PERICENTER":"269.3421","APOAPSIS":"554.138","MEAN_ELEMENT_THEORY":"SGP4","MEAN_MOTION_DOT":"0.00005152","PERIAPSIS":"551.944","MEAN_MOTION_DDOT":"0.0000000000000","RA_OF_ASC_NODE":"295.0103","OBJECT_NAME":"STARLINK-6081","COUNTRY_CODE":"US","TLE_LINE2":"2 56108  43.0002 295.0103 0001583 269.3421  90.7241 15.04500658  8808","MEAN_ANOMALY":"90.7241","ELEMENT_SET_NO":"999","PERIOD":"95.713","EPOCH":"2023-05-25T20:45:04.676544","LAUNCH_DATE":"2023-03-29","TIME_SYSTEM":"UTC","TLE_LINE1":"1 56108U 23046R   23145.86463746  .00005152  00000-0  37623-3 0  9991","BSTAR":"0.00037623000000","ECCENTRICITY":"0.00015830","MEAN_MOTION":"15.04500658","REF_FRAME":"TEME","EPHEMERIS_TYPE":"0","OBJECT_TYPE":"PAYLOAD","RCS_SIZE":"LARGE","OBJECT_ID":"2023-046R","SEMIMAJOR_AXIS":"6931.176","DECAY_DATE":null,"CENTER_NAME":"EARTH","NORAD_CAT_ID":"56108","FILE":"3917122"},{"REF_FRAME":"TEME","EPHEMERIS_TYPE":"0","TIME_SYSTEM":"UTC","TLE_LINE1":"1 56109U 23046S   23145.85000249  .00008818  00000-0  63321-3 0  9992","BSTAR":"0.00063321000000","MEAN_MOTION":"15.04502788","ECCENTRICITY":"0.00016920","LAUNCH_DATE":"2023-03-29","EPOCH":"2023-05-25T20:24:00.215136","DECAY_DATE":null,"CENTER_NAME":"EARTH","NORAD_CAT_ID":"56109","FILE":"3917122","OBJECT_ID":"2023-046S","SEMIMAJOR_AXIS":"6931.169","RCS_SIZE":"LARGE","OBJECT_TYPE":"PAYLOAD","SITE":"AFETR","REV_AT_EPOCH":"880","ARG_OF_PERICENTER":"264.9867","GP_ID":"232518990","CLASSIFICATION_TYPE":"U","INCLINATION":"43.0002","ELEMENT_SET_NO":"999","PERIOD":"95.713","RA_OF_ASC_NODE":"294.9077","COUNTRY_CODE":"US","OBJECT_NAME":"STARLINK-6083","MEAN_ANOMALY":"95.0783","TLE_LINE2":"2 56109  43.0002 294.9077 0001692 264.9867  95.0783 15.04502788  8808","MEAN_ELEMENT_THEORY":"SGP4","MEAN_MOTION_DOT":"0.00008818","PERIAPSIS":"551.862","MEAN_MOTION_DDOT":"0.0000000000000","APOAPSIS":"554.207"},{"GP_ID":"232519741","INCLINATION":"43.0002","CLASSIFICATION_TYPE":"U","ARG_OF_PERICENTER":"267.8748","REV_AT_EPOCH":"880","SITE":"AFETR","MEAN_MOTION_DDOT":"0.0000000000000","PERIAPSIS":"552.039","MEAN_MOTION_DOT":"0.00001592","MEAN_ELEMENT_THEORY":"SGP4","APOAPSIS":"554.053","PERIOD":"95.713","ELEMENT_SET_NO":"999","TLE_LINE2":"2 56110  43.0002 294.9560 0001453 267.8748  92.1928 15.04499025  8800","MEAN_ANOMALY":"92.1928","OBJECT_NAME":"STARLINK-6082","COUNTRY_CODE":"US","RA_OF_ASC_NODE":"294.9560","LAUNCH_DATE":"2023-03-29","EPOCH":"2023-05-25T20:34:17.909472","EPHEMERIS_TYPE":"0","REF_FRAME":"TEME","ECCENTRICITY":"0.00014530","MEAN_MOTION":"15.04499025","BSTAR":"0.00012642000000","TLE_LINE1":"1 56110U 23046T   23145.85715173  .00001592  00000-0  12642-3 0  9995","TIME_SYSTEM":"UTC","RCS_SIZE":"LARGE","OBJECT_TYPE":"PAYLOAD","FILE":"3917122","NORAD_CAT_ID":"56110","DECAY_DATE":null,"CENTER_NAME":"EARTH","SEMIMAJOR_AXIS":"6931.181","OBJECT_ID":"2023-046T"},{"LAUNCH_DATE":"2023-03-29","EPOCH":"2023-05-25T22:00:00.999936","EPHEMERIS_TYPE":"0","REF_FRAME":"TEME","TLE_LINE1":"1 56111U 23046U   23145.91667824  .00047624  00000-0  35188-2 0  9997","BSTAR":"0.00351880000000","TIME_SYSTEM":"UTC","MEAN_MOTION":"15.02512573","ECCENTRICITY":"0.00015160","RCS_SIZE":"LARGE","OBJECT_TYPE":"PAYLOAD","NORAD_CAT_ID":"56111","DECAY_DATE":null,"CENTER_NAME":"EARTH","FILE":"3917122","SEMIMAJOR_AXIS":"6937.289","OBJECT_ID":"2023-046U","GP_ID":"232518489","INCLINATION":"43.0007","CLASSIFICATION_TYPE":"U","REV_AT_EPOCH":"130","SITE":"AFETR","ARG_OF_PERICENTER":"278.1108","MEAN_MOTION_DOT":"0.00047624","MEAN_ELEMENT_THEORY":"SGP4","MEAN_MOTION_DDOT":"0.0000000000000","PERIAPSIS":"558.102","APOAPSIS":"560.205","ELEMENT_SET_NO":"999","PERIOD":"95.839","OBJECT_NAME":"STARLINK-6084","COUNTRY_CODE":"US","RA_OF_ASC_NODE":"294.3385","MEAN_ANOMALY":"170.2034","TLE_LINE2":"2 56111  43.0007 294.3385 0001516 278.1108 170.2034 15.02512573  1306"},{"EPHEMERIS_TYPE":"0","REF_FRAME":"TEME","TLE_LINE1":"1 56112U 23046V   23145.90637303 -.00047620  00000-0 -33890-2 0  9992","BSTAR":"-0.00338900000000","TIME_SYSTEM":"UTC","MEAN_MOTION":"15.04106230","ECCENTRICITY":"0.00010990","LAUNCH_DATE":"2023-03-29","EPOCH":"2023-05-25T21:45:10.629792","NORAD_CAT_ID":"56112","CENTER_NAME":"EARTH","DECAY_DATE":null,"FILE":"3917122","SEMIMAJOR_AXIS":"6932.388","OBJECT_ID":"2023-046V","RCS_SIZE":"LARGE","OBJECT_TYPE":"PAYLOAD","SITE":"AFETR","REV_AT_EPOCH":"881","ARG_OF_PERICENTER":"295.9217","GP_ID":"232518739","INCLINATION":"42.9999","CLASSIFICATION_TYPE":"U","ELEMENT_SET_NO":"999","PERIOD":"95.738","COUNTRY_CODE":"US","OBJECT_NAME":"STARLINK-6080","RA_OF_ASC_NODE":"294.4672","MEAN_ANOMALY":"64.1513","TLE_LINE2":"2 56112  42.9999 294.4672 0001099 295.9217  64.1513 15.04106230  8816","MEAN_MOTION_DOT":"-0.00047620","MEAN_ELEMENT_THEORY":"SGP4","MEAN_MOTION_DDOT":"0.0000000000000","PERIAPSIS":"553.491","APOAPSIS":"555.014"}];
